start=new Date('2021-10-17T00:00:00.000Z').valueOf();
sats=[{"BSTAR":"0.00001451400000","OBJECT_ID":"2021-040A","SITE":"AFETR","CENTER_NAME":"EARTH","RA_OF_ASC_NODE":"193.6578","INCLINATION":"53.0551","OBJECT_NAME":"STARLINK-2461","PERIOD":"95.592","DECAY_DATE":null,"TIME_SYSTEM":"UTC","EPHEMERIS_TYPE":"0","RCS_SIZE":"LARGE","REV_AT_EPOCH":"2458","NORAD_CAT_ID":"48428","MEAN_MOTION_DDOT":"0.0000000000000","FILE":"3166610","SEMIMAJOR_AXIS":"6925.357","EPOCH":"2021-10-16T06:15:43.693632","GP_ID":"187358885","TLE_LINE2":"2 48428  53.0551 193.6578 0001594  72.2712 287.8450 15.06397242 24588","ECCENTRICITY":"0.00015940","CLASSIFICATION_TYPE":"U","ELEMENT_SET_NO":"999","REF_FRAME":"TEME","MEAN_ANOMALY":"287.8450","OBJECT_TYPE":"PAYLOAD","LAUNCH_DATE":"2021-05-09","MEAN_MOTION":"15.06397242","TLE_LINE1":"1 48428U 21040A   21289.26092238 -.00000065  00000-0  14514-4 0  9998","COUNTRY_CODE":"US","MEAN_ELEMENT_THEORY":"SGP4","ARG_OF_PERICENTER":"72.2712","APOAPSIS":"548.326","PERIAPSIS":"546.118","MEAN_MOTION_DOT":"-0.00000065"},{"TLE_LINE1":"1 48429U 21040B   21289.91668981 -.00016923  00000-0 -11204-2 0  9997","COUNTRY_CODE":"US","MEAN_MOTION":"15.06381557","APOAPSIS":"548.596","MEAN_ELEMENT_THEORY":"SGP4","ARG_OF_PERICENTER":"59.4668","PERIAPSIS":"545.945","MEAN_MOTION_DOT":"-0.00016923","ECCENTRICITY":"0.00019140","EPOCH":"2021-10-16T22:00:01.999584","TLE_LINE2":"2 48429  53.0540 160.7123 0001914  59.4668  69.0464 15.06381557 26377","GP_ID":"187326850","CLASSIFICATION_TYPE":"U","ELEMENT_SET_NO":"999","REF_FRAME":"TEME","MEAN_ANOMALY":"69.0464","OBJECT_TYPE":"PAYLOAD","LAUNCH_DATE":"2021-05-09","TIME_SYSTEM":"UTC","EPHEMERIS_TYPE":"0","RCS_SIZE":"LARGE","MEAN_MOTION_DDOT":"0.0000000000000","REV_AT_EPOCH":"2637","NORAD_CAT_ID":"48429","SEMIMAJOR_AXIS":"6925.405","FILE":"3166220","BSTAR":"-0.00112040000000","CENTER_NAME":"EARTH","SITE":"AFETR","OBJECT_ID":"2021-040B","PERIOD":"95.593","OBJECT_NAME":"STARLINK-2749","RA_OF_ASC_NODE":"160.7123","INCLINATION":"53.0540","DECAY_DATE":null},{"OBJECT_NAME":"STARLINK-2729","PERIOD":"95.592","RA_OF_ASC_NODE":"160.7124","INCLINATION":"53.0530","DECAY_DATE":null,"BSTAR":"-0.00088285000000","CENTER_NAME":"EARTH","SITE":"AFETR","OBJECT_ID":"2021-040C","MEAN_MOTION_DDOT":"0.0000000000000","REV_AT_EPOCH":"2638","NORAD_CAT_ID":"48430","SEMIMAJOR_AXIS":"6925.355","FILE":"3166456","TIME_SYSTEM":"UTC","RCS_SIZE":"LARGE","EPHEMERIS_TYPE":"0","REF_FRAME":"TEME","MEAN_ANOMALY":"242.1226","OBJECT_TYPE":"PAYLOAD","LAUNCH_DATE":"2021-05-09","ECCENTRICITY":"0.00021920","EPOCH":"2021-10-16T22:00:01.999584","TLE_LINE2":"2 48430  53.0530 160.7124 0002192  66.2806 242.1226 15.06397822 26381","GP_ID":"187333006","ELEMENT_SET_NO":"999","CLASSIFICATION_TYPE":"U","PERIAPSIS":"545.702","MEAN_MOTION_DOT":"-0.00013407","TLE_LINE1":"1 48430U 21040C   21289.91668981 -.00013407  00000-0 -88285-3 0  9997","COUNTRY_CODE":"US","MEAN_MOTION":"15.06397822","APOAPSIS":"548.738","MEAN_ELEMENT_THEORY":"SGP4","ARG_OF_PERICENTER":"66.2806"},{"EPHEMERIS_TYPE":"0","RCS_SIZE":"LARGE","TIME_SYSTEM":"UTC","FILE":"3166516","SEMIMAJOR_AXIS":"6925.403","NORAD_CAT_ID":"48431","REV_AT_EPOCH":"2562","MEAN_MOTION_DDOT":"0.0000000000000","OBJECT_ID":"2021-040D","CENTER_NAME":"EARTH","SITE":"AFETR","BSTAR":"-0.00061411000000","DECAY_DATE":null,"INCLINATION":"53.0535","RA_OF_ASC_NODE":"155.7132","PERIOD":"95.593","OBJECT_NAME":"STARLINK-2700","MEAN_ELEMENT_THEORY":"SGP4","ARG_OF_PERICENTER":"53.1653","APOAPSIS":"548.437","MEAN_MOTION":"15.06382162","TLE_LINE1":"1 48431U 21040D   21289.91668981 -.00009412  00000-0 -61411-3 0  9991","COUNTRY_CODE":"US","MEAN_MOTION_DOT":"-0.00009412","PERIAPSIS":"546.099","ELEMENT_SET_NO":"999","CLASSIFICATION_TYPE":"U","GP_ID":"187332532","TLE_LINE2":"2 48431  53.0535 155.7132 0001688  53.1653 182.7313 15.06382162 25627","EPOCH":"2021-10-16T22:00:01.999584","ECCENTRICITY":"0.00016880","LAUNCH_DATE":"2021-05-09","MEAN_ANOMALY":"182.7313","OBJECT_TYPE":"PAYLOAD","REF_FRAME":"TEME"},{"CENTER_NAME":"EARTH","SITE":"AFETR","OBJECT_ID":"2021-040E","BSTAR":"-0.06125600000000","DECAY_DATE":null,"OBJECT_NAME":"STARLINK-2680","PERIOD":"95.154","INCLINATION":"53.0483","RA_OF_ASC_NODE":"151.9085","RCS_SIZE":"LARGE","EPHEMERIS_TYPE":"0","TIME_SYSTEM":"UTC","SEMIMAJOR_AXIS":"6904.179","FILE":"3166610","MEAN_MOTION_DDOT":"0.0000000000000","NORAD_CAT_ID":"48432","REV_AT_EPOCH":"363","ELEMENT_SET_NO":"999","CLASSIFICATION_TYPE":"U","ECCENTRICITY":"0.00015560","GP_ID":"187358548","TLE_LINE2":"2 48432  53.0483 151.9085 0001556  60.5243 168.3351 15.13333549  3638","EPOCH":"2021-10-16T16:00:00.999936","LAUNCH_DATE":"2021-05-09","OBJECT_TYPE":"PAYLOAD","MEAN_ANOMALY":"168.3351","REF_FRAME":"TEME","APOAPSIS":"527.119","MEAN_ELEMENT_THEORY":"SGP4","ARG_OF_PERICENTER":"60.5243","COUNTRY_CODE":"US","TLE_LINE1":"1 48432U 21040E   21289.66667824 -.01026228  00000-0 -61256-1 0  9999","MEAN_MOTION":"15.13333549","MEAN_MOTION_DOT":"-0.01026228","PERIAPSIS":"524.970"},{"PERIAPSIS":"545.859","MEAN_MOTION_DOT":"0.00004588","TLE_LINE1":"1 48433U 21040F   21289.66667824  .00004588  00000-0  32663-3 0  9994","COUNTRY_CODE":"US","MEAN_MOTION":"15.06405959","APOAPSIS":"548.532","MEAN_ELEMENT_THEORY":"SGP4","ARG_OF_PERICENTER":"55.4785","MEAN_ANOMALY":"83.9473","OBJECT_TYPE":"PAYLOAD","REF_FRAME":"TEME","LAUNCH_DATE":"2021-05-09","ECCENTRICITY":"0.00019300","GP_ID":"187358661","TLE_LINE2":"2 48433  53.0521 156.8439 0001930  55.4785  83.9473 15.06405959  3600","EPOCH":"2021-10-16T16:00:00.999936","CLASSIFICATION_TYPE":"U","ELEMENT_SET_NO":"999","MEAN_MOTION_DDOT":"0.0000000000000","NORAD_CAT_ID":"48433","REV_AT_EPOCH":"360","SEMIMAJOR_AXIS":"6925.330","FILE":"3166610","TIME_SYSTEM":"UTC","EPHEMERIS_TYPE":"0","RCS_SIZE":"LARGE","PERIOD":"95.592","OBJECT_NAME":"STARLINK-2699","INCLINATION":"53.0521","RA_OF_ASC_NODE":"156.8439","DECAY_DATE":null,"BSTAR":"0.00032663000000","SITE":"AFETR","CENTER_NAME":"EARTH","OBJECT_ID":"2021-040F"},{"BSTAR":"0.00083480000000","SITE":"AFETR","CENTER_NAME":"EARTH","OBJECT_ID":"2021-040G","PERIOD":"95.592","OBJECT_NAME":"STARLINK-2692","RA_OF_ASC_NODE":"161.7870","INCLINATION":"53.0628","DECAY_DATE":null,"TIME_SYSTEM":"UTC","RCS_SIZE":"LARGE","EPHEMERIS_TYPE":"0","MEAN_MOTION_DDOT":"0.0000000000000","REV_AT_EPOCH":"357","NORAD_CAT_ID":"48434","SEMIMAJOR_AXIS":"6925.323","FILE":"3166610","ECCENTRICITY":"0.00018080","EPOCH":"2021-10-16T16:00:00.999936","TLE_LINE2":"2 48434  53.0628 161.7870 0001808  64.6497  27.1847 15.06408451  3570","GP_ID":"187358436","CLASSIFICATION_TYPE":"U","ELEMENT_SET_NO":"999","REF_FRAME":"TEME","OBJECT_TYPE":"PAYLOAD","MEAN_ANOMALY":"27.1847","LAUNCH_DATE":"2021-05-09","TLE_LINE1":"1 48434U 21040G   21289.66667824  .00012177  00000-0  83480-3 0  9991","COUNTRY_CODE":"US","MEAN_MOTION":"15.06408451","APOAPSIS":"548.440","MEAN_ELEMENT_THEORY":"SGP4","ARG_OF_PERICENTER":"64.6497","PERIAPSIS":"545.936","MEAN_MOTION_DOT":"0.00012177"},{"CLASSIFICATION_TYPE":"U","ELEMENT_SET_NO":"999","EPOCH":"2021-10-16T09:33:44.779680","GP_ID":"187332545","TLE_LINE2":"2 48435  53.0544 171.2216 0001828  73.8170 286.3020 15.04754905 26180","ECCENTRICITY":"0.00018280","LAUNCH_DATE":"2021-05-09","REF_FRAME":"TEME","OBJECT_TYPE":"PAYLOAD","MEAN_ANOMALY":"286.3020","ARG_OF_PERICENTER":"73.8170","MEAN_ELEMENT_THEORY":"SGP4","APOAPSIS":"553.527","MEAN_MOTION":"15.04754905","TLE_LINE1":"1 48435U 21040H   21289.39843495  .00000002  00000-0  19581-4 0  9998","COUNTRY_CODE":"US","MEAN_MOTION_DOT":"0.00000002","PERIAPSIS":"550.993","OBJECT_ID":"2021-040H","SITE":"AFETR","CENTER_NAME":"EARTH","BSTAR":"0.00001958100000","DECAY_DATE":null,"RA_OF_ASC_NODE":"171.2216","INCLINATION":"53.0544","PERIOD":"95.697","OBJECT_NAME":"STARLINK-2633","RCS_SIZE":"LARGE","EPHEMERIS_TYPE":"0","TIME_SYSTEM":"UTC","FILE":"3166458","SEMIMAJOR_AXIS":"6930.395","REV_AT_EPOCH":"2618","NORAD_CAT_ID":"48435","MEAN_MOTION_DDOT":"0.0000000000000"},{"FILE":"3166457","SEMIMAJOR_AXIS":"6925.386","REV_AT_EPOCH":"2512","NORAD_CAT_ID":"48436","MEAN_MOTION_DDOT":"0.0000000000000","EPHEMERIS_TYPE":"0","RCS_SIZE":"LARGE","TIME_SYSTEM":"UTC","DECAY_DATE":null,"RA_OF_ASC_NODE":"187.9086","INCLINATION":"53.0541","PERIOD":"95.593","OBJECT_NAME":"STARLINK-2639","OBJECT_ID":"2021-040J","SITE":"AFETR","CENTER_NAME":"EARTH","BSTAR":"0.00005524800000","MEAN_MOTION_DOT":"0.00000541","PERIAPSIS":"546.025","ARG_OF_PERICENTER":"76.5517","MEAN_ELEMENT_THEORY":"SGP4","APOAPSIS":"548.478","MEAN_MOTION":"15.06387639","COUNTRY_CODE":"US","TLE_LINE1":"1 48436U 21040J   21289.42910308  .00000541  00000-0  55248-4 0  9999","LAUNCH_DATE":"2021-05-09","REF_FRAME":"TEME","OBJECT_TYPE":"PAYLOAD","MEAN_ANOMALY":"283.5669","ELEMENT_SET_NO":"999","CLASSIFICATION_TYPE":"U","EPOCH":"2021-10-16T10:17:54.506112","GP_ID":"187333025","TLE_LINE2":"2 48436  53.0541 187.9086 0001771  76.5517 283.5669 15.06387639 25128","ECCENTRICITY":"0.00017710"},{"PERIOD":"95.696","OBJECT_NAME":"STARLINK-2642","RA_OF_ASC_NODE":"198.8918","INCLINATION":"53.0549","DECAY_DATE":null,"BSTAR":"0.00009171500000","CENTER_NAME":"EARTH","SITE":"AFETR","OBJECT_ID":"2021-040K","MEAN_MOTION_DDOT":"0.0000000000000","REV_AT_EPOCH":"2450","NORAD_CAT_ID":"48437","SEMIMAJOR_AXIS":"6930.376","FILE":"3166610","TIME_SYSTEM":"UTC","EPHEMERIS_TYPE":"0","RCS_SIZE":"MEDIUM","REF_FRAME":"TEME","MEAN_ANOMALY":"297.6889","OBJECT_TYPE":"PAYLOAD","LAUNCH_DATE":"2021-05-09","ECCENTRICITY":"0.00019990","EPOCH":"2021-10-16T04:05:32.229024","TLE_LINE2":"2 48437  53.0549 198.8918 0001999  62.4302 297.6889 15.04761183 24509","GP_ID":"187358324","ELEMENT_SET_NO":"999","CLASSIFICATION_TYPE":"U","PERIAPSIS":"550.855","MEAN_MOTION_DOT":"0.00001030","COUNTRY_CODE":"US","TLE_LINE1":"1 48437U 21040K   21289.17051191  .00001030  00000-0  91715-4 0  9991","MEAN_MOTION":"15.04761183","APOAPSIS":"553.626","MEAN_ELEMENT_THEORY":"SGP4","ARG_OF_PERICENTER":"62.4302"}];
